STARLINK-31571          
1 59362U 24060Q   26182.15477778  .00000665  00000+0  33698-4 0  9991
2 59362  43.0023 339.2532 0001163 260.3177  99.7543 15.27580417127415
STARLINK-31553          
1 59363U 24060R   26182.14417528  .00000554  00000+0  29668-4 0  9997
2 59363  43.0048 332.2443 0001561 279.4077  80.6598 15.27580787127496
STARLINK-31547          
1 59364U 24060S   26182.13166228  .00000865  00000+0  40981-4 0  9991
2 59364  43.0080 327.8356 0002876 259.4562 100.5966 15.27577102127547
STARLINK-31537          
1 59365U 24060T   26182.16248769  .00000656  00000+0  33355-4 0  9991
2 59365  43.0052 339.3119 0001268 262.5202  97.5506 15.27582334127416
STARLINK-31451          
1 59366U 24060U   26181.78801287  .00001381  00000+0  59692-4 0  9997
2 59366  43.0021 340.8045 0001358 268.0750  91.9946 15.27579620127361
STARLINK-31428          
1 59367U 24060V   26182.12650793  .00002265  00000+0  91795-4 0  9993
2 59367  43.0013 339.0444 0001234 272.7860  87.2851 15.27579243127413
STARLINK-31419          
1 59368U 24060W   26182.13293887  .00005295  00000+0  20195-3 0  9993
2 59368  43.0023 339.0914 0001094 277.0231  83.0496 15.27556995127419
STARLINK-31583          
1 59369U 24060X   26182.09456756  .00001298  00000+0  56692-4 0  9996
2 59369  43.0017 328.4196 0000878 286.7146  73.3609 15.27575243127536
STARLINK-31461          
1 59370U 24060Y   26182.10611756 -.00000583  00000+0 -11663-4 0  9990
2 59370  43.0047 328.5029 0002167 278.7972  81.2635 15.27563358127472
STARLINK-31641          
1 59374U 24062A   26182.05403169  .00001589  00000+0  58180-4 0  9997
2 59374  53.1594  90.1283 0001337  98.6075 261.5079 15.34393566127004
STARLINK-31430          
1 59375U 24062B   26182.02886927  .00000342  00000+0  21253-4 0  9999
2 59375  53.1604  90.6778 0001201  82.3682 277.7457 15.34394269127005
STARLINK-31695          
1 59376U 24062C   26182.02409981  .00002184  00000+0  75757-4 0  9995
2 59376  53.1607  88.5198 0001494 101.7963 258.3208 15.34398981126994
STARLINK-31716          
1 59377U 24062D   26181.60096381 -.00007501  00000+0 -24121-3 0  9993
2 59377  53.1598  42.5542 0001575  82.6169 277.5011 15.30221939127598
STARLINK-31710          
1 59378U 24062E   26182.00936241  .00002489  00000+0  84721-4 0  9998
2 59378  53.1605  88.4221 0001033  77.5002 282.6116 15.34422368126998
STARLINK-31698          
1 59379U 24062F   26182.06188617  .00003313  00000+0  10914-3 0  9990
2 59379  53.1605  88.0550 0001299  70.9849 289.1294 15.34399706127001
STARLINK-31680          
1 59380U 24062G   26181.99520620  .00001451  00000+0  54080-4 0  9991
2 59380  53.1589  90.4664 0001329  93.3040 266.8115 15.34393118126962
STARLINK-31713          
1 59381U 24062H   26182.05193330  .00003952  00000+0  12813-3 0  9999
2 59381  53.1613  90.1089 0001636  64.0240 296.0931 15.34380678126976
STARLINK-31705          
1 59382U 24062J   26182.01568221  .00003588  00000+0  11726-3 0  9998
2 59382  53.1593  88.4596 0001126 102.4706 257.6422 15.34405992126992
STARLINK-31715          
1 59384U 24062L   26182.03670786  .00003505  00000+0  11477-3 0  9994
2 59384  53.1617  88.5958 0001310  80.2269 279.8881 15.34413740127037
STARLINK-31717          
1 59385U 24062M   26182.00726789  .00000898  00000+0  37698-4 0  9993
2 59385  53.1601  88.4112 0000944  93.7594 266.3516 15.34392771127029
STARLINK-31688          
1 59386U 24062N   26182.05823999  .00002338  00000+0  80305-4 0  9994
2 59386  53.1590  90.1469 0001174  89.2233 270.8904 15.34398466126979
STARLINK-31714          
1 59387U 24062P   26182.00095928  .00009528  00000+0  29280-3 0  9995
2 59387  53.1596  88.3727 0001531  74.8885 285.2287 15.34396594126987
STARLINK-31643          
1 59388U 24062Q   26182.00306257 -.00001540  00000+0 -34465-4 0  9996
2 59388  53.1616  88.3848 0001584  80.2917 279.8264 15.34386860127036
STARLINK-31647          
1 59389U 24062R   26182.04935735  .00002058  00000+0  72033-4 0  9996
2 59389  53.1604  88.7087 0001430  83.2358 276.8807 15.34393754127035
STARLINK-31649          
1 59390U 24062S   26182.01778892 -.00000385  00000+0 -27228-6 0  9995
2 59390  53.1605  88.4757 0001036  76.7021 283.4097 15.34392460127033
STARLINK-31644          
1 59391U 24062T   26182.02676424  .00000621  00000+0  29519-4 0  9999
2 59391  53.1608  90.6699 0001215  96.1998 263.9143 15.34396116127009
STARLINK-31626          
1 59392U 24062U   26181.97791248  .00000992  00000+0  40529-4 0  9990
2 59392  53.1617  88.9374 0001638  61.1916 298.9251 15.34384627127025
STARLINK-31443          
1 59393U 24062V   26182.00669550  .00006331  00000+0  19851-3 0  9992
2 59393  53.1602  74.7334 0001218 107.1212 252.9924 15.34376098127225
STARLINK-31607          
1 59394U 24062W   26182.03040187 -.00000212  00000+0  48717-5 0  9993
2 59394  53.1592  88.5524 0001176  90.4822 269.6315 15.34395483127028
STARLINK-31608          
1 59397U 24062X   26182.05566463  .00000958  00000+0  39512-4 0  9996
2 59397  53.1613  88.7071 0001398  88.9370 271.1793 15.34391092126984
