OBJECT_NAME,OBJECT_ID,EPOCH,MEAN_MOTION,ECCENTRICITY,INCLINATION,RA_OF_ASC_NODE,ARG_OF_PERICENTER,MEAN_ANOMALY,EPHEMERIS_TYPE,CLASSIFICATION_TYPE,NORAD_CAT_ID,ELEMENT_SET_NO,REV_AT_EPOCH,BSTAR,MEAN_MOTION_DOT,MEAN_MOTION_DDOT
STARLINK-31571,2024-060Q,2026-07-01T03:42:52.800192,15.27580417,.0001163,43.0023,339.2532,260.3177,99.7543,0,U,59362,999,12741,.33698E-4,.665E-5,0
STARLINK-31553,2024-060R,2026-07-01T03:27:36.744192,15.27580787,.0001561,43.0048,332.2443,279.4077,80.6598,0,U,59363,999,12749,.29668E-4,.554E-5,0
STARLINK-31547,2024-060S,2026-07-01T03:09:35.620992,15.27577102,.0002876,43.0080,327.8356,259.4562,100.5966,0,U,59364,999,12754,.40981E-4,.865E-5,0
STARLINK-31537,2024-060T,2026-07-01T03:53:58.936416,15.27582334,.0001268,43.0052,339.3119,262.5202,97.5506,0,U,59365,999,12741,.33355E-4,.656E-5,0
STARLINK-31451,2024-060U,2026-06-30T18:54:44.311968,15.27579620,.00013589,43.0021,340.8045,268.0750,91.9946,0,U,59366,999,12736,.59692363E-4,.1381E-4,0
STARLINK-31428,2024-060V,2026-07-01T03:02:10.285152,15.27579243,.0001234,43.0013,339.0444,272.7860,87.2851,0,U,59367,999,12741,.91795E-4,.2265E-4,0
STARLINK-31419,2024-060W,2026-07-01T03:11:25.918368,15.27556995,.0001094,43.0023,339.0914,277.0231,83.0496,0,U,59368,999,12741,.20195E-3,.5295E-4,0
STARLINK-31583,2024-060X,2026-07-01T02:16:10.637184,15.27575243,.0000878,43.0017,328.4196,286.7146,73.3609,0,U,59369,999,12753,.56692E-4,.1298E-4,0
STARLINK-31461,2024-060Y,2026-07-01T02:32:48.557184,15.27563358,.0002167,43.0047,328.5029,278.7972,81.2635,0,U,59370,999,12747,-.11663E-4,-.583E-5,0
STARLINK-31641,2024-062A,2026-07-01T01:17:48.338016,15.34393566,.0001337,53.1594,90.1283,98.6075,261.5079,0,U,59374,999,12700,.5818E-4,.1589E-4,0
STARLINK-31430,2024-062B,2026-07-01T00:41:34.304928,15.34394269,.0001201,53.1604,90.6778,82.3682,277.7457,0,U,59375,999,12700,.21253E-4,.342E-5,0
STARLINK-31695,2024-062C,2026-07-01T00:34:42.223584,15.34398981,.0001494,53.1607,88.5198,101.7963,258.3208,0,U,59376,999,12699,.75757E-4,.2184E-4,0
STARLINK-31716,2024-062D,2026-06-30T14:25:23.273184,15.30221939,.00015751,53.1598,42.5542,82.6169,277.5011,0,U,59377,999,12759,-.24121312E-3,-.7501E-4,0
STARLINK-31710,2024-062E,2026-07-01T00:13:28.912224,15.34422368,.0001033,53.1605,88.4221,77.5002,282.6116,0,U,59378,999,12699,.84721E-4,.2489E-4,0
STARLINK-31698,2024-062F,2026-07-01T01:29:06.965088,15.34399706,.0001299,53.1605,88.0550,70.9849,289.1294,0,U,59379,999,12700,.10914E-3,.3313E-4,0
STARLINK-31680,2024-062G,2026-06-30T23:53:05.815680,15.34393118,.0001329,53.1589,90.4664,93.3040,266.8115,0,U,59380,999,12696,.5408E-4,.1451E-4,0
STARLINK-31713,2024-062H,2026-07-01T01:14:47.037120,15.34380678,.0001636,53.1613,90.1089,64.0240,296.0931,0,U,59381,999,12697,.12813E-3,.3952E-4,0
STARLINK-31705,2024-062J,2026-07-01T00:22:34.942944,15.34405992,.0001126,53.1593,88.4596,102.4706,257.6422,0,U,59382,999,12699,.11726E-3,.3588E-4,0
STARLINK-31715,2024-062L,2026-07-01T00:52:51.559104,15.34413740,.000131,53.1617,88.5958,80.2269,279.8881,0,U,59384,999,12703,.11477E-3,.3505E-4,0
STARLINK-31717,2024-062M,2026-07-01T00:10:27.945696,15.34392771,.0000944,53.1601,88.4112,93.7594,266.3516,0,U,59385,999,12702,.37698E-4,.898E-5,0
STARLINK-31688,2024-062N,2026-07-01T01:23:51.935136,15.34398466,.0001174,53.1590,90.1469,89.2233,270.8904,0,U,59386,999,12697,.80305E-4,.2338E-4,0
STARLINK-31714,2024-062P,2026-07-01T00:01:22.881792,15.34396594,.0001531,53.1596,88.3727,74.8885,285.2287,0,U,59387,999,12698,.2928E-3,.9528E-4,0
STARLINK-31643,2024-062Q,2026-07-01T00:04:24.606048,15.34386860,.0001584,53.1616,88.3848,80.2917,279.8264,0,U,59388,999,12703,-.34465E-4,-.154E-4,0
STARLINK-31647,2024-062R,2026-07-01T01:11:04.475040,15.34393754,.000143,53.1604,88.7087,83.2358,276.8807,0,U,59389,999,12703,.72033E-4,.2058E-4,0
STARLINK-31649,2024-062S,2026-07-01T00:25:36.962688,15.34392460,.0001036,53.1605,88.4757,76.7021,283.4097,0,U,59390,999,12703,-.27228E-6,-.385E-5,0
STARLINK-31644,2024-062T,2026-07-01T00:38:32.430336,15.34396116,.0001215,53.1608,90.6699,96.1998,263.9143,0,U,59391,999,12700,.29519E-4,.621E-5,0
STARLINK-31626,2024-062U,2026-06-30T23:28:11.638272,15.34384627,.0001638,53.1617,88.9374,61.1916,298.9251,0,U,59392,999,12702,.40529E-4,.992E-5,0
STARLINK-31443,2024-062V,2026-07-01T00:09:38.491200,15.34376098,.0001218,53.1602,74.7334,107.1212,252.9924,0,U,59393,999,12722,.19851E-3,.6331E-4,0
STARLINK-31607,2024-062W,2026-07-01T00:43:46.721568,15.34395483,.0001176,53.1592,88.5524,90.4822,269.6315,0,U,59394,999,12702,.48717E-5,-.212E-5,0
STARLINK-31608,2024-062X,2026-07-01T01:20:09.424032,15.34391092,.0001398,53.1613,88.7071,88.9370,271.1793,0,U,59397,999,12698,.39512E-4,.958E-5,0
